OBJECT_NAME,OBJECT_ID,EPOCH,MEAN_MOTION,ECCENTRICITY,INCLINATION,RA_OF_ASC_NODE,ARG_OF_PERICENTER,MEAN_ANOMALY,EPHEMERIS_TYPE,CLASSIFICATION_TYPE,NORAD_CAT_ID,ELEMENT_SET_NO,REV_AT_EPOCH,BSTAR,MEAN_MOTION_DOT,MEAN_MOTION_DDOT
TJS-7,2021-077A,2026-07-07T10:49:23.655072,1.00270626,.0003207,0.3059,264.2653,114.8897,329.1404,0,U,49115,999,975,0,-.108E-5,0
CHINASAT 9B,2021-080A,2026-07-07T10:48:25.644384,1.00272520,.0002138,0.0152,70.7952,67.7587,50.3915,0,U,49125,999,1785,0,-.298E-5,0
SHIJIAN-21 (SJ-21),2021-094A,2026-07-06T14:14:17.772864,1.00261189,.00500875,5.1559,61.0612,168.1668,36.5840,0,U,49330,999,555,0,-.337E-5,0
SES-17,2021-095A,2026-07-07T04:29:16.354176,1.00271019,.0001281,0.0214,43.2783,90.4716,151.6318,0,U,49332,999,1805,0,-.257E-5,0
SYRACUSE 4A,2021-095B,2026-07-07T10:32:19.688064,1.00270699,.0001337,0.0227,36.3258,64.8621,27.8151,0,U,49333,999,1815,0,0,0
QZS-1R (MICHIBIKI-1R),2021-096A,2026-07-05T14:25:33.375072,1.00249302,.07555114,37.4964,79.3119,272.0883,281.1819,0,U,49336,999,1719,0,-.258E-5,0
ZHONGXING-1D,2021-114A,2026-07-07T12:39:13.668192,1.00273011,.0000156,0.0550,243.4871,68.0788,293.9347,0,U,49505,999,1702,0,-.321E-5,0
STPSAT-6,2021-118A,2026-07-07T10:49:00.932736,1.00270202,.0000931,0.3698,85.2070,250.4494,0.2744,0,U,49817,999,1677,0,-.3E-6,0
EXPRESS AMU-7,2021-123A,2026-07-06T14:28:58.251072,1.00272292,.0000559,0.0242,281.9499,67.1494,297.7245,0,U,50001,999,1673,0,-.228E-5,0
EXPRESS AMU-3,2021-123B,2026-07-05T22:12:47.581344,1.00269062,.0000463,0.0178,350.4254,17.7985,351.7769,0,U,50002,999,722,0,0,0
TIANLIAN 2-02,2021-124A,2026-07-06T21:26:58.284960,1.00272045,.0001047,0.8495,85.8377,160.6190,171.1431,0,U,50005,999,1681,0,.1E-7,0
TURKSAT 5B,2021-126A,2026-07-07T07:06:09.432000,1.00271148,.0002551,0.0705,336.2837,19.9544,77.5642,0,U,50212,999,1650,0,.161E-5,0
INMARSAT 6-F1,2021-128A,2026-07-07T11:09:38.622240,1.00270145,.0000023,0.0217,287.5205,231.1315,17.9449,0,U,50319,999,1646,0,-.156E-5,0
SHIYAN-12 01 (SY-12 01),2021-129A,2026-07-02T17:30:29.313216,1.00046111,.0002916,3.7121,79.7076,293.3389,217.6296,0,U,50321,999,1665,0,.15E-5,0
SHIYAN-12 02 (SY-12 02),2021-129B,2026-07-02T18:19:57.529056,1.00484340,.0003122,3.7116,79.7099,60.1473,156.9356,0,U,50322,999,1665,0,-.326E-5,0
TJS-9,2021-135A,2026-07-07T04:16:38.837856,1.00267264,.0003434,0.0309,120.5640,306.5572,59.3524,0,U,50574,999,1663,0,-.285E-5,0
GOES 18,2022-021A,2026-07-07T13:30:53.794368,1.00271393,.000055,0.0038,164.6235,8.2423,178.3783,0,U,51850,999,679,0,.112E-5,0
ZHONGXING-6D,2022-038A,2026-07-06T20:40:27.818976,1.00269269,.0000589,0.0397,91.8561,92.9382,175.2069,0,U,52255,999,1561,0,-.339E-5,0
NILESAT 301,2022-061A,2026-07-07T08:34:50.922048,1.00272739,.000429,0.0516,332.6230,88.9649,345.4893,0,U,52817,999,1493,0,-.42E-6,0
CMS-02 (GSAT-24),2022-067A,2026-07-07T10:43:11.145792,1.00269528,.0000861,0.0145,50.2966,310.3788,168.5174,0,U,52903,999,1481,0,0,0
MEASAT 3D,2022-067B,2026-07-07T07:20:08.090880,1.00268908,.0000255,0.0278,345.7496,118.7223,22.3254,0,U,52904,999,1485,0,-.226E-5,0
SES-22,2022-071A,2026-07-06T18:15:56.226816,1.00273213,.0001019,0.0347,275.9106,193.2307,310.5886,0,U,52933,999,771,0,.119E-5,0
WFOV (USA 332),2022-073A,2026-07-07T12:36:13.955328,1.00271736,.0001397,3.7596,78.2733,222.0258,293.5736,0,U,52940,999,1457,0,-.349E-5,0
TIANLIAN 2-03,2022-078A,2026-07-07T08:39:50.444064,1.00274249,.000096,0.7216,77.3794,353.6920,354.8080,0,U,53100,999,1474,0,.87E-6,0
SBIRS GEO-6 (USA 336),2022-092A,2026-07-07T12:41:50.916192,1.00270956,.0001873,3.2248,317.7999,148.1909,148.9766,0,U,53355,999,1443,0,-.276E-5,0
EUTELSAT KONNECT VHTS,2022-110A,2026-07-07T08:37:35.659200,1.00268567,.0002963,0.0585,99.2731,341.7007,336.4617,0,U,53765,999,703,0,.32E-6,0
ZHONGXING-1E,2022-112A,2026-07-07T12:25:22.748160,1.00269888,.0000589,0.0399,126.3276,108.3767,318.5196,0,U,53813,999,1405,0,-.134E-5,0
SES-20,2022-123A,2026-07-06T21:51:33.429312,1.00270215,.0001997,0.0199,67.0885,23.9896,58.5838,0,U,53960,999,1373,0,-.86E-6,0
SES-21,2022-123B,2026-07-07T11:38:54.320352,1.00268130,.0000959,0.0387,28.4986,79.5188,221.2355,0,U,53961,999,741,0,0,0
GALAXY 33 (G-33),2022-128A,2026-07-07T11:24:11.586240,1.00273107,.0001779,0.0146,317.2581,149.6374,216.6030,0,U,54026,999,1394,0,.94E-6,0
GALAXY 34 (G-34),2022-128B,2026-07-06T16:36:07.829856,1.00275248,.0001829,0.0172,18.6774,102.5440,283.4893,0,U,54027,999,1410,0,0,0
ANGOSAT 2,2022-131A,2026-07-06T20:44:50.764416,1.00272085,.0000046,0.0217,125.5214,258.6800,234.8461,0,U,54033,999,1367,0,.15E-5,0
